NORAD_CAT_ID,OBJECT_NAME,OBJECT_TYPE,EPOCH,MEAN_MOTION,ECCENTRICITY,INCLINATION,RA_OF_ASC_NODE,ARG_OF_PERICENTER,MEAN_ANOMALY,BSTAR,MEAN_MOTION_DOT,MEAN_MOTION_DDOT,TLE_LINE0,TLE_LINE1,TLE_LINE2,SEMIMAJOR_AXIS,PERIOD,APOGEE,PERIGEE,DECAYED
53992.0,STARLINK-5108,PAYLOAD,2023-01-03 18:33:28,15.08840051,0.0001558,53.2188,25.6797,65.9772,294.1383,0.00045192,6.912e-05,0.0,0 STARLINK-5108,1 53992U 22125AE  23003.77325018  .00006912  00000-0  45192-3 0  9993,2 53992  53.2188  25.6797 0001558  65.9772 294.1383 15.08840051 14274,6917.88,95.438,540.823,538.6669999999998,0.0
53992.0,STARLINK-5108,PAYLOAD,2023-01-04 10:27:19,15.08849533,0.0001575999999999,53.2184,22.7059,70.648,289.4683,0.00031596,4.745e-05,0.0,0 STARLINK-5108,1 53992U 22125AE  23004.43564679  .00004745  00000-0  31596-3 0  9990,2 53992  53.2184  22.7059 0001576  70.6480 289.4683 15.08849533 14294,6917.851,95.437,540.807,538.626,0.0
53992.0,STARLINK-5108,PAYLOAD,2023-01-04 18:24:14,15.08861623,0.0001484,53.2188,21.2184,70.8866,289.2287,0.00044601,6.822e-05,0.0,0 STARLINK-5108,1 53992U 22125AE  23004.76683993  .00006822  00000-0  44601-3 0  9996,2 53992  53.2188  21.2184 0001484  70.8866 289.2287 15.08861623 14347,6917.814,95.436,540.706,538.653,0.0
53992.0,STARLINK-5108,PAYLOAD,2023-01-05 11:53:28,15.08867194,0.000157,53.2184,17.9479,68.5119,291.6041,0.00034473,5.207e-05,0.0,0 STARLINK-5108,1 53992U 22125AE  23005.49546963  .00005207  00000-0  34473-3 0  9994,2 53992  53.2184  17.9479 0001570  68.5119 291.6041 15.08867194 14459,6917.797,95.436,540.748,538.576,0.0
53992.0,STARLINK-5108,PAYLOAD,2023-01-06 10:08:52,15.08826014,0.0001382,53.2184,13.7851,60.0613,300.0516,-0.00054457,-8.941e-05,0.0,0 STARLINK-5108,1 53992U 22125AE  23006.42283227 -.00008941  00000-0 -54457-3 0  9993,2 53992  53.2184  13.7851 0001382  60.0613 300.0516 15.08826014 14676,6917.923000000002,95.438,540.744,538.832,0.0
53992.0,STARLINK-5108,PAYLOAD,2023-01-06 11:44:15,15.08825967,0.0001361,53.2184,13.4877,60.3493,299.7635,-0.00041379,-6.865e-05,0.0,0 STARLINK-5108,1 53992U 22125AE  23006.48907294 -.00006865  00000-0 -41379-3 0  9998,2 53992  53.2184  13.4877 0001361  60.3493 299.7635 15.08825967 14602,6917.923000000002,95.438,540.73,538.847,0.0
53992.0,STARLINK-5108,PAYLOAD,2023-01-07 06:48:54,15.08845502,0.0001448,53.2186,9.9197,60.01600000000001,300.0976,0.001292,0.00020337,0.0,0 STARLINK-5108,1 53992U 22125AE  23007.28395985  .00020337  00000-0  12920-2 0  9992,2 53992  53.2186   9.9197 0001448  60.0160 300.0976 15.08845502 14727,6917.864000000001,95.437,540.73,538.727,0.0
53992.0,STARLINK-5108,PAYLOAD,2023-01-07 09:59:40,15.08846005,0.0001419999999999,53.2186,9.3251,60.5063,299.6071,0.0011495,0.00018057,0.0,0 STARLINK-5108,1 53992U 22125AE  23007.41644031  .00018057  00000-0  11495-2 0  9998,2 53992  53.2186   9.3251 0001420  60.5063 299.6071 15.08846005 14828,6917.861999999999,95.437,540.7090000000002,538.745,0.0
53992.0,STARLINK-5108,PAYLOAD,2023-01-07 11:35:03,15.088432699999998,0.0001413,53.2185,9.0275,59.6592,300.4539,0.00092993,0.00014544,0.0,0 STARLINK-5108,1 53992U 22125AE  23007.48268082  .00014544  00000-0  92993-3 0  9993,2 53992  53.2185   9.0275 0001413  59.6592 300.4539 15.08843270 14751,6917.87,95.437,540.7130000000002,538.758,0.0
53992.0,STARLINK-5108,PAYLOAD,2023-01-08 00:18:09,15.08835777,0.0001501999999999,53.2189,6.6483,65.547,294.5679,0.00041445,6.313e-05,0.0,0 STARLINK-5108,1 53992U 22125AE  23008.01260700  .00006313  00000-0  41445-3 0  9993,2 53992  53.2189   6.6483 0001502  65.5470 294.5679 15.08835777 14918,6917.893,95.438,540.797,538.719,0.0
53992.0,STARLINK-5108,PAYLOAD,2023-01-08 09:50:28,15.08828958,0.0001571,53.2189,4.8644,63.6733,296.442,0.00034704,5.238e-05,0.0,0 STARLINK-5108,1 53992U 22125AE  23008.41005231  .00005238  00000-0  34704-3 0  9998,2 53992  53.2189   4.8644 0001571  63.6733 296.4420 15.08828958 14978,6917.914000000002,95.438,540.866,538.692,0.0
53992.0,STARLINK-5108,PAYLOAD,2023-01-09 00:08:56,15.08851585,0.0001611,53.219,2.1883,62.6981,297.4175,0.00093631,0.00014649,0.0,0 STARLINK-5108,1 53992U 22125AE  23009.00621006  .00014649  00000-0  93631-3 0  9998,2 53992  53.2190   2.1883 0001611  62.6981 297.4175 15.08851585 15066,6917.845,95.437,540.8240000000002,538.596,0.0
53992.0,STARLINK-5108,PAYLOAD,2023-01-09 09:41:14,15.08855057,0.0001556,53.2189,0.4043,61.7126,298.4023,0.00061415,9.504e-05,0.0,0 STARLINK-5108,1 53992U 22125AE  23009.40364565  .00009504  00000-0  61415-3 0  9995,2 53992  53.2189   0.4043 0001556  61.7126 298.4023 15.08855057 15041,6917.834,95.437,540.776,538.623,0.0
53992.0,STARLINK-5108,PAYLOAD,2023-01-09 16:02:47,15.08857487,0.0001537,53.2189,359.2149,62.457,297.6578,0.00046675,7.152e-05,0.0,0 STARLINK-5108,1 53992U 22125AE  23009.66860232  .00007152  00000-0  46675-3 0  9993,2 53992  53.2189 359.2149 0001537  62.4570 297.6578 15.08857487 15161,6917.826999999998,95.436,540.755,538.629,0.0
53992.0,STARLINK-5108,PAYLOAD,2023-01-10 03:10:29,15.08840733,0.0001354,53.2164,357.1329,59.2718,300.8408,8.4967e-05,1.065e-05,0.0,0 STARLINK-5108,1 53992U 22125AE  23010.13228517  .00001065  00000-0  84967-4 0  9995,2 53992  53.2164 357.1329 0001354  59.2718 300.8408 15.08840733 15239,6917.8780000000015,95.438,540.68,538.806,0.0
53992.0,STARLINK-5108,PAYLOAD,2023-01-10 06:21:13,15.08884828,0.0001166,53.2193,356.5395,64.3691,295.7422,-0.0013352,-0.000215,0.0,0 STARLINK-5108,1 53992U 22125AE  23010.26473854 -.00021500  00000-0 -13352-2 0  9991,2 53992  53.2193 356.5395 0001166  64.3691 295.7422 15.08884828 15258,6917.743,95.435,540.415,538.802,0.0
53992.0,STARLINK-5108,PAYLOAD,2023-01-10 15:53:34,15.08836806,0.0001345,53.2187,354.755,61.4973,298.6154,-6.865e-05,-1.3800000000000003e-05,0.0,0 STARLINK-5108,1 53992U 22125AE  23010.66220732 -.00001380  00000-0 -68650-4 0  9997,2 53992  53.2187 354.7550 0001345  61.4973 298.6154 15.08836806 15318,6917.89,95.438,540.686,538.825,0.0
53992.0,STARLINK-5108,PAYLOAD,2023-01-10 22:15:07,15.08844388,0.0001768,53.2179,353.5629,69.7504,290.3678,-3.7968e-05,-8.92e-06,0.0,0 STARLINK-5108,1 53992U 22125AE  23010.92716444 -.00000892  00000-0 -37968-4 0  9991,2 53992  53.2179 353.5629 0001768  69.7504 290.3678 15.08844388 15272,6917.866999999998,95.437,540.955,538.509,0.0
53992.0,STARLINK-5108,PAYLOAD,2023-01-11 03:01:15,15.08855638,0.0001386999999999,53.22,352.6740000000001,64.9037,295.2099,0.00012405,1.688e-05,0.0,0 STARLINK-5108,1 53992U 22125AE  23011.12587750  .00001688  00000-0  12405-3 0  9990,2 53992  53.2200 352.6740 0001387  64.9037 295.2099 15.08855638 15389,6917.833000000001,95.437,540.6569999999998,538.738,0.0
53992.0,STARLINK-5108,PAYLOAD,2023-01-11 06:12:02,15.088424800000002,0.000157,53.2192,352.0797,68.6259,291.4901,-3.4825e-05,-8.42e-06,0.0,0 STARLINK-5108,1 53992U 22125AE  23011.25836221 -.00000842  00000-0 -34825-4 0  9998,2 53992  53.2192 352.0797 0001570  68.6259 291.4901 15.08842480 15400,6917.873000000001,95.437,540.8240000000002,538.6519999999998,0.0
53992.0,STARLINK-5108,PAYLOAD,2023-01-11 22:05:54,15.08834968,0.0001647,53.2202,349.1090000000001,68.5147,291.6021,-8.1914e-05,-1.591e-05,0.0,0 STARLINK-5108,1 53992U 22125AE  23011.92076917 -.00001591  00000-0 -81914-4 0  9993,2 53992  53.2202 349.1090 0001647  68.5147 291.6021 15.08834968 15424,6917.896,95.438,540.9,538.621,0.0
53992.0,STARLINK-5108,PAYLOAD,2023-01-12 15:35:09,15.08827132,0.000205,53.219,345.8373,71.7931,288.3284,1.3498e-06,-2.67e-06,0.0,0 STARLINK-5108,1 53992U 22125AE  23012.64941810 -.00000267  00000-0  13498-5 0  9997,2 53992  53.2190 345.8373 0002050  71.7931 288.3284 15.08827132 15613,6917.92,95.438,541.203,538.367,0.0
53992.0,STARLINK-5108,PAYLOAD,2023-01-12 21:56:42,15.0882842,0.0001756,53.219,344.6454,78.4941,281.6248,-7.719e-05,-1.516e-05,0.0,0 STARLINK-5108,1 53992U 22125AE  23012.91437899 -.00001516  00000-0 -77190-4 0  9991,2 53992  53.2190 344.6454 0001756  78.4941 281.6248 15.08828420 15579,6917.916,95.438,540.996,538.566,0.0
53992.0,STARLINK-5108,PAYLOAD,2023-01-13 07:29:00,15.08838963,0.0001262999999999,53.2183,342.8592,86.9204,273.1933,5.3036000000000005e-05,5.56e-06,0.0,0 STARLINK-5108,1 53992U 22125AE  23013.31181523  .00000556  00000-0  53036-4 0  9990,2 53992  53.2183 342.8592 0001263  86.9204 273.1933 15.08838963 15719,6917.884,95.438,540.622,538.875,0.0
53992.0,STARLINK-5108,PAYLOAD,2023-01-13 15:25:56,15.08828945,0.0001419999999999,53.2184,341.3741,270.155,89.928,3.6329e-05,2.9e-06,0.0,0 STARLINK-5108,1 53992U 22125AE  23013.64301293  .00000290  00000-0  36329-4 0  9995,2 53992  53.2184 341.3741 0001420 270.1550  89.9280 15.08828945 15768,6917.914000000001,95.438,540.762,538.797,0.0
53992.0,STARLINK-5108,PAYLOAD,2023-01-13 21:47:30,15.08828531,0.0001523,53.2164,340.1838,84.8855,275.2311,0.00014455,2.013e-05,0.0,0 STARLINK-5108,1 53992U 22125AE  23013.90798732  .00002013  00000-0  14455-3 0  9992,2 53992  53.2164 340.1838 0001523  84.8855 275.2311 15.08828531 15724,6917.915,95.438,540.8340000000001,538.727,0.0
53992.0,STARLINK-5108,PAYLOAD,2023-01-14 07:19:48,15.08845911,0.0001376999999999,53.216,338.3991,83.1127,277.0021,0.00044091,6.737e-05,0.0,0 STARLINK-5108,1 53992U 22125AE  23014.30542253  .00006737  00000-0  44091-3 0  9998,2 53992  53.2160 338.3991 0001377  83.1127 277.0021 15.08845911 15864,6917.861999999999,95.437,540.68,538.775,0.0
53992.0,STARLINK-5108,PAYLOAD,2023-01-15 03:59:49,15.08850718,0.0001516,53.2149,334.5351,88.2199,271.8967,0.00046687,7.152e-05,0.0,0 STARLINK-5108,1 53992U 22125AE  23015.16654386  .00007152  00000-0  46687-3 0  9999,2 53992  53.2149 334.5351 0001516  88.2199 271.8967 15.08850718 15995,6917.848000000001,95.437,540.761,538.664,0.0
53992.0,STARLINK-5108,PAYLOAD,2023-01-15 07:10:35,15.08872212,0.0001044999999999,53.217,333.9403,94.2991,265.8121,0.0010531,0.00016527,0.0,0 STARLINK-5108,1 53992U 22125AE  23015.29901723  .00016527  00000-0  10531-2 0  9997,2 53992  53.2170 333.9403 0001045  94.2991 265.8121 15.08872212 16016,6917.781999999999,95.436,540.37,538.924,0.0
